SatCatId,ObjectName,LaunchYear,OrbitalPeriod,LaunchMass,StatusCode,Inclination,Status,UcsData,OrbitClassEstimated,LaunchSiteCountry,Owner,UseType,Purpose,LaunchVehicleClass,TLE1,TLE2,MeanMotion,Eccentricity,OrbitClass
49453,STARLINK-3129,2021,95.44,260.0,+,53.22,Active,1,LEO,USA,USA,Commercial,Communications,Falcon,1 49453U 21104AX  24173.38081375  .00002917  00000+0  20123-3 0  9994,2 49453  53.2169 150.8183 0001439  80.5706 279.5449 15.08851568144222,15.08851568,0.0001439,LEO
49454,STARLINK-3160,2021,95.44,260.0,+,53.22,Active,1,LEO,USA,USA,Commercial,Communications,Falcon,1 49454U 21104AY  24173.30993041  .00000012  00000+0  18877-4 0  9997,2 49454  53.2165 151.0492 0001376  88.8105 271.3045 15.08836295144210,15.08836295,0.0001376,LEO
49455,STARLINK-3145,2021,95.44,260.0,+,53.22,Active,1,LEO,USA,USA,Commercial,Communications,Falcon,1 49455U 21104AZ  24173.36145087  .00000292  00000+0  36460-4 0  9991,2 49455  53.2162 150.8179 0001385  91.3819 268.7332 15.08835682144227,15.08835682,0.0001385,LEO
49456,STARLINK-3124,2021,95.44,260.0,+,53.22,Active,1,LEO,USA,USA,Commercial,Communications,Falcon,1 49456U 21104BA  24173.24097548 -.00000147  00000+0  88836-5 0  9992,2 49456  53.2162 151.4071 0001343  91.2960 268.8186 15.08832345144205,15.08832345,0.0001343,LEO
49457,STARLINK-3132,2021,95.44,260.0,+,53.22,Active,1,LEO,USA,USA,Commercial,Communications,Falcon,1 49457U 21104BB  24173.35872407  .00000532  00000+0  51543-4 0  9991,2 49457  53.2177 150.8413 0001520  98.9790 261.1375 15.08840834144227,15.08840834,0.000152,LEO
49458,STARLINK-3156,2021,95.44,260.0,+,53.22,Active,1,LEO,USA,USA,Commercial,Communications,Falcon,1 49458U 21104BC  24173.16640923 -.00001153  00000+0 -54383-4 0  9994,2 49458  53.2164 151.6936 0001223  81.8024 278.3106 15.08828940144196,15.0882894,0.0001223,LEO
49459,STARLINK-3141,2021,95.44,260.0,+,53.22,Active,1,LEO,USA,USA,Commercial,Communications,Falcon,1 49459U 21104BD  24173.22160920 -.00000229  00000+0  36859-5 0  9997,2 49459  53.2170 151.4454 0001483  98.8279 261.2881 15.08837518145277,15.08837518,0.0001483,LEO
49460,STARLINK-3140,2021,95.44,260.0,+,53.22,Active,1,LEO,USA,USA,Commercial,Communications,Falcon,1 49460U 21104BE  24173.21792796 -.00000371  00000+0 -52195-5 0  9990,2 49460  53.2172 151.4618 0001486 102.3486 257.7672 15.08837413145280,15.08837413,0.0001486,LEO
49469,GLOBAL-14,2021,93.63,55.0,+,42.01,Active,1,LEO,New Zealand,USA,Commercial,Earth Observation,Electron,1 49469U 21106A   24173.45354698  .00015849  00000+0  41989-3 0  9993,2 49469  42.0086 208.7134 0006880  54.2545 305.8934 15.38032995146307,15.38032995,0.000688,LEO
49470,GLOBAL-15,2021,92.06,55.0,+,42.0,Active,1,LEO,New Zealand,USA,Commercial,Earth Observation,Electron,1 49470U 21106B   24173.51478960  .00070217  00000+0  69791-3 0  9992,2 49470  41.9963 224.5002 0026176  78.5429 281.8358 15.64357441146129,15.64357441,0.0026176,LEO
49492,GAOFEN-11 03,2021,94.51,3000.0,+,97.32,Active,1,LEO,PRC,China,Government,Earth Observation,Long March,1 49492U 21107A   24173.87165032  .00007143  00000+0  30074-3 0  9999,2 49492  97.3175 230.0297 0007829 102.7878 257.4234 15.23636171144195,15.23636171,0.0007829,LEO
49495,GAOFEN-3 02,2021,99.85,2500.0,+,98.41,Active,1,LEO,PRC,China,Government,Earth Observation,Long March,1 49495U 21109A   24173.84005266  .00000084  00000+0  38765-4 0  9996,2 49495  98.4115 181.0859 0002777  43.4902 316.6506 14.42213598135766,14.42213598,0.0002777,LEO
49501,SHIYAN 11 (SY-11),2021,93.41,200.0,+,97.41,Active,1,LEO,PRC,China,Government,Technology Development,Kuaizhou,1 49501U 21112A   24173.83406127  .00017030  00000+0  40551-3 0  9992,2 49501  97.4130 195.2002 0008993 161.3341 198.8237 15.41637501143674,15.41637501,0.0008993,LEO
49503,COSMOS 2552,2021,718.01,2000.0,+,63.13,Active,1,MEO,Russia,Russia/USSR,Military,Earth Observation,Soyuz,1 49503U 21113A   24173.15555267 -.00000757  00000+0  00000+0 0  9990,2 49503  63.1298 279.7362 6794325 271.5621  18.1716  2.00550983 18845,2.00550983,0.6794325,MEO
49505,CHINASAT 1D (ZX 1D),2021,1436.07,2500.0,+,0.03,Active,1,GSO,PRC,China,Commercial,Communications,Long March,1 49505U 21114A   24173.58897597 -.00000318  00000+0  00000+0 0  9998,2 49505   0.0320 106.5507 0001317  85.0659  60.8416  1.00273301  9550,1.00273301,0.0001317,GEO
49724,STARLINK-3219,2021,95.44,260.0,+,53.22,Active,1,LEO,USA,USA,Commercial,Communications,Falcon,1 49724U 21115A   24173.88312070  .00000655  00000+0  59282-4 0  9997,2 49724  53.2164  78.6967 0001570  94.7138 265.4033 15.08833197142169,15.08833197,0.000157,LEO
49725,STARLINK-3218,2021,95.44,260.0,+,53.22,Active,1,LEO,USA,USA,Commercial,Communications,Falcon,1 49725U 21115B   24173.04406719 -.00000635  00000+0 -21819-4 0  9995,2 49725  53.2169  82.3472 0001360  84.5661 275.5486 15.08832487140931,15.08832487,0.000136,LEO
49726,STARLINK-3237,2021,93.73,260.0,P,53.19,Active,1,LEO,USA,USA,Commercial,Communications,Falcon,1 49726U 21115C   24173.88542928  .00082455  00000+0  22621-2 0  9999,2 49726  53.1927  71.1143 0005775 102.2438 257.9213 15.36564176142277,15.36564176,0.0005775,LEO
49727,STARLINK-3242,2021,95.44,260.0,+,53.22,Active,1,LEO,USA,USA,Commercial,Communications,Falcon,1 49727U 21115D   24173.19769092  .00001249  00000+0  96590-4 0  9997,2 49727  53.2170  91.5522 0001070  95.3785 264.7329 15.08831760140814,15.0883176,0.000107,LEO
49728,STARLINK-3240,2021,95.44,260.0,+,53.22,Active,1,LEO,USA,USA,Commercial,Communications,Falcon,1 49728U 21115E   24173.20136347  .00000949  00000+0  77701-4 0  9990,2 49728  53.2178  91.5359 0001280  98.2571 261.8566 15.08844972140819,15.08844972,0.000128,LEO
49729,STARLINK-3251,2021,95.44,260.0,+,53.22,Active,1,LEO,USA,USA,Commercial,Communications,Falcon,1 49729U 21115F   24173.19399350  .00000998  00000+0  80812-4 0  9995,2 49729  53.2179  91.4524 0001517  99.0231 261.0933 15.08843761141927,15.08843761,0.0001517,LEO
49730,STARLINK-3249,2021,95.44,260.0,+,53.22,Active,1,LEO,USA,USA,Commercial,Communications,Falcon,1 49730U 21115G   24173.16459655  .00001198  00000+0  93331-4 0  9992,2 49730  53.2172  91.8969 0001505  87.2664 272.8500 15.08842144140805,15.08842144,0.0001505,LEO
49732,STARLINK-3246,2021,95.44,260.0,+,53.22,Active,1,LEO,USA,USA,Commercial,Communications,Falcon,1 49732U 21115J   24173.03946929  .00000630  00000+0  57698-4 0  9991,2 49732  53.2170  92.4194 0001352  92.9140 267.2007 15.08838479140787,15.08838479,0.0001352,LEO
49733,STARLINK-3252,2021,95.44,260.0,+,53.22,Active,1,LEO,USA,USA,Commercial,Communications,Falcon,1 49733U 21115K   24173.14985379  .00000257  00000+0  34220-4 0  9997,2 49733  53.2193  91.7703 0001309 103.3545 256.7593 15.08837920140805,15.0883792,0.0001309,LEO
49734,STARLINK-3238,2021,95.44,260.0,+,53.22,Active,1,LEO,USA,USA,Commercial,Communications,Falcon,1 49734U 21115L   24172.97045422  .00000167  00000+0  28603-4 0  9992,2 49734  53.2175  82.5966 0001543 109.2639 250.8520 15.08835788140922,15.08835788,0.0001543,LEO
49735,STARLINK-3113,2021,95.44,260.0,+,53.22,Active,1,LEO,USA,USA,Commercial,Communications,Falcon,1 49735U 21115M   24173.20872128  .00001309  00000+0  10033-3 0  9997,2 49735  53.2182  91.3886 0001384  96.1869 263.9281 15.08837511140815,15.08837511,0.0001384,LEO
49736,STARLINK-3148,2021,95.44,260.0,+,53.22,Active,1,LEO,USA,USA,Commercial,Communications,Falcon,1 49736U 21115N   24173.03300292 -.00001085  00000+0 -50089-4 0  9996,2 49736  53.2171  82.1775 0001516  97.4258 262.6907 15.08832667140933,15.08832667,0.0001516,LEO
49737,STARLINK-3225,2021,95.44,260.0,+,53.22,Active,1,LEO,USA,USA,Commercial,Communications,Falcon,1 49737U 21115P   24173.17284737 -.00001157  00000+0 -54628-4 0  9990,2 49737  53.2171  81.6644 0001286  93.6083 266.5056 15.08837349140953,15.08837349,0.0001286,LEO
49738,STARLINK-3143,2021,95.44,260.0,+,53.22,Active,1,LEO,USA,USA,Commercial,Communications,Falcon,1 49738U 21115Q   24173.13334898  .00001713  00000+0  12566-3 0  9991,2 49738  53.2179  82.0457 0001539  90.9180 269.1989 15.08848324140946,15.08848324,0.0001539,LEO
49739,STARLINK-3155,2021,95.44,260.0,+,53.22,Active,1,LEO,USA,USA,Commercial,Communications,Falcon,1 49739U 21115R   24173.16089374  .00001019  00000+0  82094-4 0  9994,2 49739  53.2188  91.7207 0001650  84.3778 275.7403 15.08839342140800,15.08839342,0.000165,LEO
49740,STARLINK-3226,2021,95.44,260.0,+,53.22,Active,1,LEO,USA,USA,Commercial,Communications,Falcon,1 49740U 21115S   24173.18852587  .00001025  00000+0  82498-4 0  9997,2 49740  53.2192  81.5657 0001685  88.4298 271.6887 15.08840858142068,15.08840858,0.0001685,LEO
49741,STARLINK-3244,2021,95.44,260.0,+,53.22,Active,1,LEO,USA,USA,Commercial,Communications,Falcon,1 49741U 21115T   24173.18485001  .00003532  00000+0  23991-3 0  9998,2 49741  53.2186  81.6235 0001323 105.0894 255.0245 15.08833865140952,15.08833865,0.0001323,LEO
49742,STARLINK-3202,2021,95.44,260.0,+,53.22,Active,1,LEO,USA,USA,Commercial,Communications,Falcon,1 49742U 21115U   24173.13236988  .00001365  00000+0  10380-3 0  9992,2 49742  53.2179  81.8478 0001522  87.8209 272.2958 15.08844422140946,15.08844422,0.0001522,LEO
49743,STARLINK-3239,2021,95.44,260.0,+,53.22,Active,1,LEO,USA,USA,Commercial,Communications,Falcon,1 49743U 21115V   24173.18116513  .00001056  00000+0  84456-4 0  9992,2 49743  53.2181  81.5612 0001277  88.9546 271.1592 15.08836532140956,15.08836532,0.0001277,LEO
49744,STARLINK-3231,2021,95.44,260.0,+,53.22,Active,1,LEO,USA,USA,Commercial,Communications,Falcon,1 49744U 21115W   24173.12963863 -.00000274  00000+0  89809-6 0  9996,2 49744  53.2192  81.7539 0001539  87.7078 272.4091 15.08838689140949,15.08838689,0.0001539,LEO
49745,STARLINK-3241,2021,95.44,260.0,+,53.22,Active,1,LEO,USA,USA,Commercial,Communications,Falcon,1 49745U 21115X   24173.19220046  .00001260  00000+0  97241-4 0  9995,2 49745  53.2166  81.5501 0001019 109.4608 250.6494 15.08846794140954,15.08846794,0.0001019,LEO
